ZHUHAI-1 02 (CAS-4B)    
1 42759U 17034B   23155.41805706  .00006442  00000+0  32910-3 0  9992
2 42759  43.0137 186.6624 0010428  12.7106 347.4003 15.17222157329695
ZHUHAI-1 01 (CAS-4A)    
1 42761U 17034D   23155.43420207  .00006244  00000+0  31926-3 0  9992
2 42761  43.0132 185.1043 0011089  14.5259 345.5905 15.17229305329709
MAX VALIER SAT          
1 42778U 17036P   23154.89865364  .00021267  00000+0  56485-3 0  9997
2 42778  97.1557 190.0613 0010213 140.5636 219.6355 15.38238530330685
RADFXSAT (FOX-1B)       
1 43017U 17073E   23155.25792118  .00005912  00000+0  41282-3 0  9990
2 43017  97.6325  40.1093 0235524 111.8424 250.8022 14.85894448299260
FOX-1D (AO-92)          
1 43137U 18004AC  23154.73242311  .00027603  00000+0  58287-3 0  9999
2 43137  97.3292 233.7871 0006544 176.2380 183.8919 15.45140561300238
DIWATA-2B               
1 43678U 18084H   23155.39132238  .00001305  00000+0  12999-3 0  9997
2 43678  98.0212 299.1045 0009159 196.3171 163.7754 14.93385519250350
ES'HAIL 2               
1 43700U 18090A   23155.37479855  .00000161  00000+0  00000+0 0  9992
2 43700   0.0019  28.9952 0001867  74.8299 309.4632  1.00269576 16800
FOX-1CLIFF (AO-95)      
1 43770U 18099N   23155.41553045  .00003901  00000+0  32025-3 0  9998
2 43770  97.5730 217.3009 0012381 173.0263 187.1135 14.99716671245696
ITASAT 1                
1 43786U 18099AE  23155.21483007  .00003155  00000+0  26187-3 0  9996
2 43786  97.5777 218.1380 0013408 160.9154 199.2575 14.99412188245700
JY1SAT (JO-97)          
1 43803U 18099AX  23155.11392054  .00005704  00000+0  45411-3 0  9999
2 43803  97.5696 218.0177 0013927 134.4269 225.8097 15.00689090245731
UWE-4                   
1 43880U 18111E   23155.23386169  .00004988  00000+0  38370-3 0  9991
2 43880  97.6322  60.6196 0017129 214.4026 145.6091 15.02033043240420
NEXUS (FO-99)           
1 43937U 19003F   23155.07835205  .00047412  00000+0  79755-3 0  9998
2 43937  97.0858 182.4598 0009665 329.6574  30.4118 15.51545925244014
JAISAT-1                
1 44419U 19038F   23154.88422049  .00022069  00000+0  76635-3 0  9993
2 44419  97.6728 136.1692 0014124 359.5930   0.5296 15.29689078216508
DUCHIFAT-3              
1 44854U 19089C   23155.41200050  .00006077  00000+0  41303-3 0  9993
2 44854  36.9603 167.6254 0009992 217.5870 142.4176 15.06051283190909
CAS-6 (TIANQIN 1)       
1 44881U 19093C   23155.40543811  .00001039  00000+0  13572-3 0  9992
2 44881  97.8617 234.0740 0016056 117.7172 242.5672 14.82508763186905
RS-44 & BREEZE-KM R/B   
1 44909U 19096E   23154.85321970  .00000030  00000+0  80611-4 0  9993
2 44909  82.5221 356.8082 0216745 217.9326 140.6339 12.79720951160450
BY70-2                  
1 45857U 20042B   23155.38548120  .00015248  00000+0  15833-2 0  9995
2 45857  97.9262 235.2439 0009148  60.2838 299.9289 14.89996418157632
SALSAT                  
1 46495U 20068K   23154.84702569  .00003776  00000+0  25159-3 0  9997
2 46495  97.7703 102.7108 0016236 158.7000 201.4907 15.07617296147066
RADFXSAT-2 (AO-109)     
1 47311U 21002C   23155.11684273  .00023697  00000+0  62610-3 0  9993
2 47311  60.6802 108.7612 0014273 169.4900 190.6496 15.38325489132280
UVSQ-SAT                
1 47438U 21006AB  23154.90108802  .00013893  00000+0  57496-3 0  9995
2 47438  97.3852 212.2019 0011518 126.3143 233.9160 15.23998381130620
DIY-1 (ARDUIQUBE)       
1 47963U 21022AH  23155.29313656  .00195424  00000+0  26725-2 0  9995
2 47963  97.4967  63.2270 0004956  57.2951 302.8781 15.56746667120584
XW-3 (CAS-9)            
1 50466U 21131B   23155.44450130  .00000584  00000+0  20389-3 0  9997
2 50466  98.5517 237.0289 0004670 162.9761 197.1584 14.38905794 75522
TEVEL-3                 
1 50988U 22002E   23155.38281289  .00016393  00000+0  66632-3 0  9990
2 50988  97.4341 222.4393 0006172 274.1639  85.8893 15.24612773 76814
TEVEL-8                 
1 50989U 22002F   23155.40100849  .00016972  00000+0  69104-3 0  9996
2 50989  97.4355 222.5150 0006255 272.8529  87.1992 15.24546873 76819
TEVEL-5                 
1 50998U 22002Q   23155.39985621  .00017422  00000+0  69094-3 0  9992
2 50998  97.4333 222.8247 0007456 267.8230  92.2154 15.25416387 76849
TEVEL-6                 
1 50999U 22002R   23155.39837970  .00017433  00000+0  69135-3 0  9994
2 50999  97.4331 222.8182 0007476 267.7150  92.3232 15.25416424 76848
TEVEL-1                 
1 51013U 22002AF  23155.39223146  .00016586  00000+0  67503-3 0  9991
2 51013  97.4335 222.3934 0006151 273.5262  86.5272 15.24567139 76813
TEVEL-7                 
1 51062U 22002CG  23155.40215099  .00016804  00000+0  68389-3 0  9991
2 51062  97.4351 222.4897 0006246 272.2060  87.8462 15.24563017 76817
TEVEL-4                 
1 51063U 22002CH  23155.40780273  .00016610  00000+0  67705-3 0  9999
2 51063  97.4350 222.4800 0006251 272.2580  87.7941 15.24512869 76814
TEVEL-2                 
1 51069U 22002CP  23155.38465879  .00016381  00000+0  66579-3 0  9997
2 51069  97.4337 222.4131 0006140 273.6484  86.4051 15.24613971 76811
GREENCUBE               
1 53106U 22080B   23149.84195747 -.00000003  00000+0  00000+0 0  9993
2 53106  70.1621 326.0976 0008371 189.0727 170.9782  6.42557054 20576
RS29S (SXC3-2110 CYCLO*)
1 53373U 22096D   23155.39087886  .00027179  00000+0  72255-3 0  9994
2 53373  97.4154  61.5466 0002676 113.9877 246.1649 15.38213175 45724
RS32S (SXC3-212 MONITO*)
1 53374U 22096E   23155.41818641  .00025513  00000+0  69633-3 0  9995
2 53374  97.4133  61.4726 0003040 121.8605 238.2936 15.37411074 45721
RS34S (SXC3-218 KUZBAS*)
1 53375U 22096F   23155.42350699  .00020484  00000+0  59383-3 0  9994
2 53375  97.4160  61.2015 0002935 118.3244 241.8296 15.35571500 45709
RS23S (SXC3-21 UTMN)    
1 53376U 22096G   23155.38519159  .00020668  00000+0  58945-3 0  9995
2 53376  97.4156  61.2462 0002682 114.7587 245.3936 15.36083216 45703
RS28S (SXC3-214 MIET-A*)
1 53377U 22096H   23155.42996313  .00017667  00000+0  51876-3 0  9993
2 53377  97.4166  61.1995 0002824 119.9339 240.2185 15.35200388 45705
RS26S (KAI-1)           
1 53378U 22096J   23155.39191600  .00015589  00000+0  47840-3 0  9993
2 53378  97.4179  60.9587 0002837 116.7514 243.4019 15.33828714 45683
RS19S (SXC3-219 ISOI)   
1 53381U 22096M   23155.38439374  .00019728  00000+0  56432-3 0  9995
2 53381  97.4156  61.3954 0005648 101.9145 258.2732 15.35986687 45710
RS21S (CUBESX-HSE-2)    
1 53383U 22096P   23155.42586795  .00020364  00000+0  57473-3 0  9996
2 53383  97.4158  61.5034 0006179 102.3784 257.8152 15.36398835 45724
RS30S (SXC3-217 SIREN)  
1 53384U 22096Q   23155.38012171  .00016768  00000+0  49606-3 0  9996
2 53384  97.4171  61.2711 0006123  99.9882 260.2052 15.34960663 45705
RS20S (GEOSCAN-EDELVEIS)
1 53385U 22096R   23155.37019651  .00028238  00000+0  71392-3 0  9998
2 53385  97.4149  62.0145 0006487 101.5443 258.6532 15.39731969 45789
RS33S (SXC3-215 VIZARD) 
1 53386U 22096S   23155.37930606  .00035460  00000+0  79896-3 0  9993
2 53386  97.4145  62.6087 0007167 100.7626 259.4428 15.43161853 45818
CAS-5A (FO-118)         
1 54684U 22167C   23155.38561083  .00009685  00000+0  53947-3 0  9993
2 54684  97.5612 293.0547 0013623  24.8312 335.3572 15.13748648 26748
